ORBCOMM FM103           
1 40091U 14040F   26019.13028246  .00000491  00000+0  14090-3 0  9997
2 40091  47.0056  77.6695 0002183 216.9777 143.0958 14.58604397595625
ORBCOMM FM114           
1 41179U 15081A   26019.28349610  .00000656  00000+0  17581-3 0  9999
2 41179  47.0064 345.8954 0002912 251.7402 108.3167 14.58627253536012
ORBCOMM FM119           
1 41180U 15081B   26018.93837408  .00000363  00000+0  11362-3 0  9995
2 41180  46.9996 256.8859 0001413 306.2459  53.8296 14.58572593537210
ORBCOMM FM105           
1 41181U 15081C   26019.04304486  .00000189  00000+0  97589-4 0  9996
2 41181  47.0016 282.4611 0001869 227.0014 133.0710 14.45442333531972
ORBCOMM FM110           
1 41182U 15081D   26019.27252514  .00000919  00000+0  23140-3 0  9998
2 41182  47.0036 345.4295 0001579 102.6900 257.4163 14.58676022535888
ORBCOMM FM118           
1 41183U 15081E   26018.96482489  .00000669  00000+0  17846-3 0  9998
2 41183  47.0057 347.1916 0002233  45.2279 314.8789 14.58657365535948
ORBCOMM FM112           
1 41184U 15081F   26019.03601685  .00000370  00000+0  11515-3 0  9995
2 41184  46.9984 255.3766 0002047 247.0915 112.9754 14.58607371537179
ORBCOMM FM113           
1 41185U 15081G   26019.01331157  .00000309  00000+0  10215-3 0  9996
2 41185  47.0000 255.8453 0001767 256.8884 103.1804 14.58607725537159
